{
  "norad_id": 68176,
  "name": "STARLINK-36905",
  "history": [
    {
      "epoch": "2026-03-28T18:35:12.325344",
      "apogee_km": 328.1194583807119,
      "perigee_km": 327.2152477217469,
      "latitude_deg": 53.101707993437365,
      "longitude_deg": -8.052971839904785,
      "semi_major_axis_km": 6705.80435305123,
      "eccentricity": 6.742e-05,
      "inclination_deg": 53.1592,
      "raan_deg": 186.1169,
      "arg_perigee_deg": 79.3009,
      "mean_anomaly_deg": 280.809,
      "mean_motion_rev_day": 15.80980249
    },
    {
      "epoch": "2026-03-29T05:12:27.626688",
      "apogee_km": 328.24333405223115,
      "perigee_km": 327.057750814728,
      "latitude_deg": 35.32548033044257,
      "longitude_deg": 34.430696320021525,
      "semi_major_axis_km": 6705.787542433479,
      "eccentricity": 8.84e-05,
      "inclination_deg": 53.159,
      "raan_deg": 183.8993,
      "arg_perigee_deg": 47.7951,
      "mean_anomaly_deg": 312.3147,
      "mean_motion_rev_day": 15.80986194
    }
  ]
}